[{"OBJECT_NAME":"GHGSAT-C2","OBJECT_ID":"2021-006DA","EPOCH":"2026-03-09T16:22:36.229728","MEAN_MOTION":15.36517997,"ECCENTRICITY":0.00061235,"INCLINATION":97.2293,"RA_OF_ASC_NODE":117.6581,"ARG_OF_PERICENTER":150.646,"MEAN_ANOMALY":209.513,"EPHEMERIS_TYPE":0,"CLASSIFICATION_TYPE":"U","NORAD_CAT_ID":47509,"ELEMENT_SET_NO":999,"REV_AT_EPOCH":28456,"BSTAR":0.00026516759,"MEAN_MOTION_DOT":9.377e-5,"MEAN_MOTION_DDOT":0},{"OBJECT_NAME":"STARLINK-30947","OBJECT_ID":"2023-186A","EPOCH":"2026-03-09T22:00:01.999584","MEAN_MOTION":15.24671961,"ECCENTRICITY":0.00016408,"INCLINATION":43.002,"RA_OF_ASC_NODE":65.6766,"ARG_OF_PERICENTER":257.5953,"MEAN_ANOMALY":45.9401,"EPHEMERIS_TYPE":0,"CLASSIFICATION_TYPE":"U","NORAD_CAT_ID":58473,"ELEMENT_SET_NO":999,"REV_AT_EPOCH":577,"BSTAR":0.047928589,"MEAN_MOTION_DOT":0.01328512,"MEAN_MOTION_DDOT":0}]
